[
  {
    "OBJECT_NAME": "STARLINK-1350",
    "OBJECT_ID": "20025E",
    "EPOCH": "2025-11-11T04:20:35.553120",
    "MEAN_MOTION": 15.32631311,
    "ECCENTRICITY": 0.0002188,
    "INCLINATION": 53.0727,
    "RA_OF_ASC_NODE": 228.2699,
    "ARG_OF_PERICENTER": 80.4838,
    "MEAN_ANOMALY": 279.641,
    "EPHEMERIS_TYPE": 0,
    "CLASSIFICATION_TYPE": "U",
    "NORAD_CAT_ID": 45535,
    "ELEMENT_SET_NO": 999,
    "REV_AT_EPOCH": 30796,
    "BSTAR": 0.0005822500000000001,
    "MEAN_MOTION_DOT": 0.00018281,
    "MEAN_MOTION_DDOT": 0.0,
    "TLE_LINE1": "1 45535U 20025E   25315.18096705  .00018281  00000+0  58225-3 0  9997",
    "TLE_LINE2": "2 45535  53.0727 228.2699 0002188  80.4838 279.6410 15.32631311307966",
    "COMMENT": "Grouped by shell and plane from TLE"
  },
  {
    "OBJECT_NAME": "STARLINK-31658",
    "OBJECT_ID": "24073C",
    "EPOCH": "2025-11-11T03:59:40.555104",
    "MEAN_MOTION": 15.27586664,
    "ECCENTRICITY": 0.0001702,
    "INCLINATION": 43.0024,
    "RA_OF_ASC_NODE": 227.0995,
    "ARG_OF_PERICENTER": 258.8647,
    "MEAN_ANOMALY": 101.2014,
    "EPHEMERIS_TYPE": 0,
    "CLASSIFICATION_TYPE": "U",
    "NORAD_CAT_ID": 59513,
    "ELEMENT_SET_NO": 999,
    "REV_AT_EPOCH": 8850,
    "BSTAR": 6.4863e-05,
    "MEAN_MOTION_DOT": 1.523e-05,
    "MEAN_MOTION_DDOT": 0.0,
    "TLE_LINE1": "1 59513U 24073C   25315.16644161  .00001523  00000+0  64863-4 0  9995",
    "TLE_LINE2": "2 59513  43.0024 227.0995 0001702 258.8647 101.2014 15.27586664 88502",
    "COMMENT": "Grouped by shell and plane from TLE"
  },
  {
    "OBJECT_NAME": "STARLINK-31947",
    "OBJECT_ID": "24097A",
    "EPOCH": "2025-11-11T04:07:44.852160",
    "MEAN_MOTION": 15.27597767,
    "ECCENTRICITY": 0.0001178,
    "INCLINATION": 42.9976,
    "RA_OF_ASC_NODE": 223.465,
    "ARG_OF_PERICENTER": 278.2485,
    "MEAN_ANOMALY": 81.8233,
    "EPHEMERIS_TYPE": 0,
    "CLASSIFICATION_TYPE": "U",
    "NORAD_CAT_ID": 59835,
    "ELEMENT_SET_NO": 999,
    "REV_AT_EPOCH": 8379,
    "BSTAR": 0.00019735,
    "MEAN_MOTION_DOT": 5.175e-05,
    "MEAN_MOTION_DDOT": 0.0,
    "TLE_LINE1": "1 59835U 24097A   25315.17204690  .00005175  00000+0  19735-3 0  9992",
    "TLE_LINE2": "2 59835  42.9976 223.4650 0001178 278.2485  81.8233 15.27597767 83792",
    "COMMENT": "Grouped by shell and plane from TLE"
  },
  {
    "OBJECT_NAME": "STARLINK-31929",
    "OBJECT_ID": "24097B",
    "EPOCH": "2025-11-11T03:30:56.901888",
    "MEAN_MOTION": 15.27583223,
    "ECCENTRICITY": 0.0001087,
    "INCLINATION": 43.0036,
    "RA_OF_ASC_NODE": 224.1361,
    "ARG_OF_PERICENTER": 275.5459,
    "MEAN_ANOMALY": 84.5268,
    "EPHEMERIS_TYPE": 0,
    "CLASSIFICATION_TYPE": "U",
    "NORAD_CAT_ID": 59836,
    "ELEMENT_SET_NO": 999,
    "REV_AT_EPOCH": 8378,
    "BSTAR": 0.00012538,
    "MEAN_MOTION_DOT": 3.19e-05,
    "MEAN_MOTION_DDOT": 0.0,
    "TLE_LINE1": "1 59836U 24097B   25315.14649192  .00003190  00000+0  12538-3 0  9999",
    "TLE_LINE2": "2 59836  43.0036 224.1361 0001087 275.5459  84.5268 15.27583223 83788",
    "COMMENT": "Grouped by shell and plane from TLE"
  },
  {
    "OBJECT_NAME": "STARLINK-31927",
    "OBJECT_ID": "24097C",
    "EPOCH": "2025-11-11T02:59:28.299840",
    "MEAN_MOTION": 15.2760565,
    "ECCENTRICITY": 0.0001371,
    "INCLINATION": 43.0004,
    "RA_OF_ASC_NODE": 223.9717,
    "ARG_OF_PERICENTER": 270.6754,
    "MEAN_ANOMALY": 89.3941,
    "EPHEMERIS_TYPE": 0,
    "CLASSIFICATION_TYPE": "U",
    "NORAD_CAT_ID": 59837,
    "ELEMENT_SET_NO": 999,
    "REV_AT_EPOCH": 8378,
    "BSTAR": 0.00027228,
    "MEAN_MOTION_DOT": 7.244e-05,
    "MEAN_MOTION_DDOT": 0.0,
    "TLE_LINE1": "1 59837U 24097C   25315.12463310  .00007244  00000+0  27228-3 0  9990",
    "TLE_LINE2": "2 59837  43.0004 223.9717 0001371 270.6754  89.3941 15.27605650 83786",
    "COMMENT": "Grouped by shell and plane from TLE"
  },
  {
    "OBJECT_NAME": "STARLINK-31855",
    "OBJECT_ID": "24097D",
    "EPOCH": "2025-11-11T04:02:11.718816",
    "MEAN_MOTION": 15.27651449,
    "ECCENTRICITY": 0.000183,
    "INCLINATION": 42.9993,
    "RA_OF_ASC_NODE": 223.4256,
    "ARG_OF_PERICENTER": 262.3241,
    "MEAN_ANOMALY": 97.7403,
    "EPHEMERIS_TYPE": 0,
    "CLASSIFICATION_TYPE": "U",
    "NORAD_CAT_ID": 59838,
    "ELEMENT_SET_NO": 999,
    "REV_AT_EPOCH": 8379,
    "BSTAR": 0.0019034000000000002,
    "MEAN_MOTION_DOT": 0.00052606,
    "MEAN_MOTION_DDOT": 0.0,
    "TLE_LINE1": "1 59838U 24097D   25315.16819119  .00052606  00000+0  19034-2 0  9994",
    "TLE_LINE2": "2 59838  42.9993 223.4256 0001830 262.3241  97.7403 15.27651449 83798",
    "COMMENT": "Grouped by shell and plane from TLE"
  },
  {
    "OBJECT_NAME": "STARLINK-31887",
    "OBJECT_ID": "24097E",
    "EPOCH": "2025-11-11T03:36:30.806784",
    "MEAN_MOTION": 15.27575446,
    "ECCENTRICITY": 8.72e-05,
    "INCLINATION": 43.0025,
    "RA_OF_ASC_NODE": 224.1633,
    "ARG_OF_PERICENTER": 261.6419,
    "MEAN_ANOMALY": 98.4334,
    "EPHEMERIS_TYPE": 0,
    "CLASSIFICATION_TYPE": "U",
    "NORAD_CAT_ID": 59839,
    "ELEMENT_SET_NO": 999,
    "REV_AT_EPOCH": 8378,
    "BSTAR": 3.5581000000000004e-05,
    "MEAN_MOTION_DOT": 7.17e-06,
    "MEAN_MOTION_DDOT": 0.0,
    "TLE_LINE1": "1 59839U 24097E   25315.15035656  .00000717  00000+0  35581-4 0  9993",
    "TLE_LINE2": "2 59839  43.0025 224.1633 0000872 261.6419  98.4334 15.27575446 83780",
    "COMMENT": "Grouped by shell and plane from TLE"
  },
  {
    "OBJECT_NAME": "STARLINK-31906",
    "OBJECT_ID": "24097H",
    "EPOCH": "2025-11-11T03:10:35.347584",
    "MEAN_MOTION": 15.27602748,
    "ECCENTRICITY": 4.62e-05,
    "INCLINATION": 42.9993,
    "RA_OF_ASC_NODE": 224.0318,
    "ARG_OF_PERICENTER": 280.8594,
    "MEAN_ANOMALY": 79.2206,
    "EPHEMERIS_TYPE": 0,
    "CLASSIFICATION_TYPE": "U",
    "NORAD_CAT_ID": 59842,
    "ELEMENT_SET_NO": 999,
    "REV_AT_EPOCH": 8378,
    "BSTAR": 0.0,
    "MEAN_MOTION_DOT": -1.7e-05,
    "MEAN_MOTION_DDOT": 0.0,
    "TLE_LINE1": "1 59842U 24097H   25315.13235356 -.00001700  00000+0 -52244-4 0  9994",
    "TLE_LINE2": "2 59842  42.9993 224.0318 0000462 280.8594  79.2206 15.27602748 83788",
    "COMMENT": "Grouped by shell and plane from TLE"
  },
  {
    "OBJECT_NAME": "STARLINK-31857",
    "OBJECT_ID": "24097J",
    "EPOCH": "2025-11-11T02:18:47.429856",
    "MEAN_MOTION": 15.27585106,
    "ECCENTRICITY": 0.000111,
    "INCLINATION": 43.0025,
    "RA_OF_ASC_NODE": 223.7493,
    "ARG_OF_PERICENTER": 264.4818,
    "MEAN_ANOMALY": 95.5907,
    "EPHEMERIS_TYPE": 0,
    "CLASSIFICATION_TYPE": "U",
    "NORAD_CAT_ID": 59843,
    "ELEMENT_SET_NO": 999,
    "REV_AT_EPOCH": 8378,
    "BSTAR": 8.4887e-05,
    "MEAN_MOTION_DOT": 2.075e-05,
    "MEAN_MOTION_DDOT": 0.0,
    "TLE_LINE1": "1 59843U 24097J   25315.09638229  .00002075  00000+0  84887-4 0  9998",
    "TLE_LINE2": "2 59843  43.0025 223.7493 0001110 264.4818  95.5907 15.27585106 83782",
    "COMMENT": "Grouped by shell and plane from TLE"
  },
  {
    "OBJECT_NAME": "STARLINK-31851",
    "OBJECT_ID": "24097K",
    "EPOCH": "2025-11-11T04:13:17.360832",
    "MEAN_MOTION": 15.27593289,
    "ECCENTRICITY": 7.63e-05,
    "INCLINATION": 43.0001,
    "RA_OF_ASC_NODE": 223.491,
    "ARG_OF_PERICENTER": 270.8464,
    "MEAN_ANOMALY": 89.23,
    "EPHEMERIS_TYPE": 0,
    "CLASSIFICATION_TYPE": "U",
    "NORAD_CAT_ID": 59844,
    "ELEMENT_SET_NO": 999,
    "REV_AT_EPOCH": 8379,
    "BSTAR": 0.00015900000000000002,
    "MEAN_MOTION_DOT": 4.118e-05,
    "MEAN_MOTION_DDOT": 0.0,
    "TLE_LINE1": "1 59844U 24097K   25315.17589538  .00004118  00000+0  15900-3 0  9995",
    "TLE_LINE2": "2 59844  43.0001 223.4910 0000763 270.8464  89.2300 15.27593289 83798",
    "COMMENT": "Grouped by shell and plane from TLE"
  },
  {
    "OBJECT_NAME": "STARLINK-31922",
    "OBJECT_ID": "24097M",
    "EPOCH": "2025-11-11T02:24:22.426848",
    "MEAN_MOTION": 15.27562222,
    "ECCENTRICITY": 6.36e-05,
    "INCLINATION": 43.0006,
    "RA_OF_ASC_NODE": 223.7795,
    "ARG_OF_PERICENTER": 267.6581,
    "MEAN_ANOMALY": 92.4198,
    "EPHEMERIS_TYPE": 0,
    "CLASSIFICATION_TYPE": "U",
    "NORAD_CAT_ID": 59846,
    "ELEMENT_SET_NO": 999,
    "REV_AT_EPOCH": 8378,
    "BSTAR": 3.9647e-05,
    "MEAN_MOTION_DOT": 8.29e-06,
    "MEAN_MOTION_DDOT": 0.0,
    "TLE_LINE1": "1 59846U 24097M   25315.10025957  .00000829  00000+0  39647-4 0  9990",
    "TLE_LINE2": "2 59846  43.0006 223.7795 0000636 267.6581  92.4198 15.27562222 83785",
    "COMMENT": "Grouped by shell and plane from TLE"
  },
  {
    "OBJECT_NAME": "STARLINK-31889",
    "OBJECT_ID": "24097N",
    "EPOCH": "2025-11-11T02:09:45.537696",
    "MEAN_MOTION": 15.27586011,
    "ECCENTRICITY": 0.0001225,
    "INCLINATION": 43.0037,
    "RA_OF_ASC_NODE": 224.5756,
    "ARG_OF_PERICENTER": 281.6072,
    "MEAN_ANOMALY": 78.4642,
    "EPHEMERIS_TYPE": 0,
    "CLASSIFICATION_TYPE": "U",
    "NORAD_CAT_ID": 59847,
    "ELEMENT_SET_NO": 999,
    "REV_AT_EPOCH": 8377,
    "BSTAR": 0.00029832,
    "MEAN_MOTION_DOT": 7.957e-05,
    "MEAN_MOTION_DDOT": 0.0,
    "TLE_LINE1": "1 59847U 24097N   25315.09011039  .00007957  00000+0  29832-3 0  9998",
    "TLE_LINE2": "2 59847  43.0037 224.5756 0001225 281.6072  78.4642 15.27586011 83771",
    "COMMENT": "Grouped by shell and plane from TLE"
  },
  {
    "OBJECT_NAME": "STARLINK-31895",
    "OBJECT_ID": "24097Q",
    "EPOCH": "2025-11-11T04:18:50.919264",
    "MEAN_MOTION": 15.27592845,
    "ECCENTRICITY": 6.06e-05,
    "INCLINATION": 42.9985,
    "RA_OF_ASC_NODE": 223.5185,
    "ARG_OF_PERICENTER": 271.5144,
    "MEAN_ANOMALY": 88.5638,
    "EPHEMERIS_TYPE": 0,
    "CLASSIFICATION_TYPE": "U",
    "NORAD_CAT_ID": 59849,
    "ELEMENT_SET_NO": 999,
    "REV_AT_EPOCH": 8379,
    "BSTAR": 0.00019768,
    "MEAN_MOTION_DOT": 5.184e-05,
    "MEAN_MOTION_DDOT": 0.0,
    "TLE_LINE1": "1 59849U 24097Q   25315.17975601  .00005184  00000+0  19768-3 0  9990",
    "TLE_LINE2": "2 59849  42.9985 223.5185 0000606 271.5144  88.5638 15.27592845 83799",
    "COMMENT": "Grouped by shell and plane from TLE"
  }
]